OBJECT_NAME,OBJECT_ID,EPOCH,MEAN_MOTION,ECCENTRICITY,INCLINATION,RA_OF_ASC_NODE,ARG_OF_PERICENTER,MEAN_ANOMALY,EPHEMERIS_TYPE,CLASSIFICATION_TYPE,NORAD_CAT_ID,ELEMENT_SET_NO,REV_AT_EPOCH,BSTAR,MEAN_MOTION_DOT,MEAN_MOTION_DDOT
EYESAT A (AO-27),1993-061C,2026-07-20T21:54:28.200096,14.30950079,.00084239,98.6863,269.3111,9.6352,350.4991,0,U,22825,999,71182,.31734093E-4,.39E-6,0
ITAMSAT (IO-26),1993-061D,2026-07-20T17:49:00.412896,14.31377685,.00086197,98.6811,269.0617,352.8903,7.2156,0,U,22826,999,71211,.24923557E-4,.21E-6,0
RADIO ROSTO (RS15),1994-085A,2026-07-20T19:37:40.778112,11.27583651,.01571375,64.8143,248.8272,357.6705,2.3471,0,U,23439,999,29969,-.13223049E-3,-.47E-6,0
JAS-2 (FO-29),1996-046B,2026-07-20T10:23:27.209184,13.53275815,.0350108,98.5217,45.7476,10.3648,350.4474,0,U,24278,999,47766,-.13728913E-4,-.49E-6,0
FORTE,1997-047A,2026-07-20T17:14:24.817056,14.27956799,.00242148,69.9543,298.2821,236.6475,123.2329,0,U,24920,999,50347,.49219002E-4,.64E-6,0
TECHSAT 1B (GO-32),1998-043D,2026-07-20T22:06:52.593120,14.24434052,.00023065,99.0090,195.5342,105.8843,254.2589,0,U,25397,999,45613,.31066271E-4,.25E-6,0
ISS (ZARYA),1998-067A,2026-07-20T19:09:47.004480,15.49066413,.00068357,51.6312,133.7599,319.3995,40.6483,0,U,25544,999,57696,.10899996E-3,.5574E-4,0
IMAGE,2000-017A,2026-07-20T11:27:45.592128,1.68666956,.74093077,94.2547,315.8054,284.0475,10.0856,0,U,26113,999,16206,0,-.64E-6,0
CLUSTER II-FM7 (SAMBA),2000-041A,2026-07-20T14:26:37.417344,0.44850593,.90917143,149.8020,56.9135,274.4939,359.4480,0,U,26410,999,2046,0,.10308E-3,-.3041523E-5
CLUSTER II-FM8 (TANGO),2000-045B,2026-07-18T22:53:06.823680,0.44421506,.90953904,150.0065,57.8200,275.2268,2.0610,0,U,26464,999,2045,0,.14903E-3,-.8973583E-5
ODIN,2001-007A,2026-07-20T20:10:16.042944,15.93013897,.00050088,97.3677,245.3160,158.6660,201.4824,0,U,26702,999,39472,.11627641E-2,.402916E-2,.64924218E-4
OMNI-M1,2001-026A,2026-07-15T12:15:20.524608,3.92402085,.00135289,44.8240,238.7352,57.8922,302.2996,0,U,26857,999,20668,0,.4E-7,0
PCSAT (NO-44),2001-043C,2026-07-20T08:03:28.656576,14.31966213,.0005868,67.0500,158.5337,267.0045,93.0386,0,U,26931,999,29519,.47439985E-4,.44E-6,0
PROBA-1,2001-049B,2026-07-20T23:41:18.497760,15.07624609,.00550238,97.9604,211.7029,10.2710,349.9627,0,U,26958,999,34871,.45688264E-4,.647E-5,0
SAUDISAT 1C (SO-50),2002-058C,2026-07-20T22:30:56.600640,14.83105633,.00743462,64.5521,24.5545,256.2283,103.0541,0,U,27607,999,26946,.84993258E-4,.57E-5,0
CORIOLIS,2003-001A,2026-07-20T22:47:46.542336,14.19952952,.00151159,98.7137,208.3204,113.8917,246.3845,0,U,27640,999,21901,.45838791E-4,.54E-6,0
CUTE-1 (CO-55),2003-031E,2026-07-20T19:49:46.669440,14.24353809,.0010867,98.6745,209.9631,88.2698,271.9726,0,U,27844,999,19646,.93434227E-4,.172E-5,0
CUBESAT XI-IV (CO-57),2003-031J,2026-07-20T11:31:28.745184,14.23636281,.00106849,98.6776,209.3071,105.6000,254.6359,0,U,27848,999,19611,.7011484E-4,.116E-5,0
MOZHAETS 4 (RS22),2003-042A,2026-07-20T23:31:25.494816,14.73520922,.00116794,98.3483,27.2959,155.2099,4.3294,0,U,27939,999,22052,.13574261E-3,.829E-5,0
